ONEWEB-0589             
1 54655U 22166P   24308.61322929  .00000062  00000+0  11983-3 0  9995
2 54655  87.9335   1.6236 0002020 125.0585 235.0739 13.21826186 93526
ONEWEB-0590             
1 54656U 22166Q   24308.56119613  .00000095  00000+0  19952-3 0  9994
2 54656  87.9324   1.6445 0001652  99.9957 260.1363 13.21825358 93509
ONEWEB-0591             
1 54657U 22166R   24308.57381492  .00000172  00000+0  38597-3 0  9994
2 54657  87.9338   1.6335 0001765 103.0076 257.1256 13.21823791 93536
ONEWEB-0592             
1 54658U 22166S   24308.57695864  .00000107  00000+0  22811-3 0  9996
2 54658  87.9333   1.5933 0001708 103.0471 257.0853 13.21828655 93414
ONEWEB-0593             
1 54659U 22166T   24308.60062179  .00000054  00000+0  99688-4 0  9996
2 54659  87.9337   1.6192 0001799 105.3716 254.7616 13.21824241 93524
ONEWEB-0594             
1 54660U 22166U   24308.54385819 -.00000035  00000+0 -11737-3 0  9999
2 54660  87.9338   1.6345 0001869  96.7185 263.4162 13.21825652 93539
ONEWEB-0595             
1 54661U 22166V   24308.59747579  .00000045  00000+0  78681-4 0  9991
2 54661  87.9336   1.6084 0001684  90.1304 270.0023 13.21826540 93519
ONEWEB-0596             
1 54662U 22166W   24308.57064829 -.00000336  00000+0 -84547-3 0  9992
2 54662  87.9341   1.6219 0001643 106.2413 253.8901 13.21825377 93512
